[{"OBJECT_NAME":"STARLINK-5709","OBJECT_ID":"2023-020BE","EPOCH":"2026-03-09T21:48:47.400480","MEAN_MOTION":15.03308687,"ECCENTRICITY":0.00014848,"INCLINATION":43.0065,"RA_OF_ASC_NODE":350.3559,"ARG_OF_PERICENTER":266.3396,"MEAN_ANOMALY":93.7277,"EPHEMERIS_TYPE":0,"CLASSIFICATION_TYPE":"U","NORAD_CAT_ID":55621,"ELEMENT_SET_NO":999,"REV_AT_EPOCH":16910,"BSTAR":0.0067132125,"MEAN_MOTION_DOT":0.00093605,"MEAN_MOTION_DDOT":0},{"OBJECT_NAME":"CZ-6A DEB","OBJECT_ID":"2022-151AFR","EPOCH":"2026-03-09T05:35:50.250336","MEAN_MOTION":14.7956831,"ECCENTRICITY":0.01345943,"INCLINATION":98.6622,"RA_OF_ASC_NODE":165.7254,"ARG_OF_PERICENTER":140.0218,"MEAN_ANOMALY":221.0996,"EPHEMERIS_TYPE":0,"CLASSIFICATION_TYPE":"U","NORAD_CAT_ID":56641,"ELEMENT_SET_NO":999,"REV_AT_EPOCH":15895,"BSTAR":0.00092929705,"MEAN_MOTION_DOT":8.055e-5,"MEAN_MOTION_DDOT":0}]
